[{"OBJECT_NAME":"YAOGAN-36 02B","OBJECT_ID":"2022-133B","EPOCH":"2026-03-09T22:42:31.775904","MEAN_MOTION":15.30199518,"ECCENTRICITY":0.00056841,"INCLINATION":34.9983,"RA_OF_ASC_NODE":22.5268,"ARG_OF_PERICENTER":273.0351,"MEAN_ANOMALY":86.9715,"EPHEMERIS_TYPE":0,"CLASSIFICATION_TYPE":"U","NORAD_CAT_ID":54043,"ELEMENT_SET_NO":999,"REV_AT_EPOCH":18962,"BSTAR":0.00051218814,"MEAN_MOTION_DOT":0.00015352,"MEAN_MOTION_DDOT":0},{"OBJECT_NAME":"STARLINK-35813","OBJECT_ID":"2025-254P","EPOCH":"2026-03-09T17:17:01.614912","MEAN_MOTION":15.301753,"ECCENTRICITY":0.00010649,"INCLINATION":53.1597,"RA_OF_ASC_NODE":232.0746,"ARG_OF_PERICENTER":87.3325,"MEAN_ANOMALY":272.7798,"EPHEMERIS_TYPE":0,"CLASSIFICATION_TYPE":"U","NORAD_CAT_ID":66361,"ELEMENT_SET_NO":999,"REV_AT_EPOCH":1898,"BSTAR":0.00090758873,"MEAN_MOTION_DOT":0.00026597,"MEAN_MOTION_DDOT":0}]
